{
    "links": {
        "self": "http://www.neowsapp.com/rest/v1/neo/3694466?api_key=iIulBulltgU6a56xZRHN4H3l9WmuAYTsLGpBGhQ2"
    },
    "id": "3694466",
    "neo_reference_id": "3694466",
    "name": "(2014 UJ57)",
    "designation": "2014 UJ57",
    "nasa_jpl_url": "http://ssd.jpl.nasa.gov/sbdb.cgi?sstr=3694466",
    "absolute_magnitude_h": 23.8,
    "estimated_diameter": {
        "kilometers": {
            "estimated_diameter_min": 0.046190746,
            "estimated_diameter_max": 0.1032856481
        },
        "meters": {
            "estimated_diameter_min": 46.1907460282,
            "estimated_diameter_max": 103.2856480504
        },
        "miles": {
            "estimated_diameter_min": 0.0287015901,
            "estimated_diameter_max": 0.0641787064
        },
        "feet": {
            "estimated_diameter_min": 151.544447199,
            "estimated_diameter_max": 338.8636855496
        }
    },
    "is_potentially_hazardous_asteroid": false,
    "close_approach_data": [
        {
            "close_approach_date": "2014-10-16",
            "close_approach_date_full": "2014-Oct-16 00:22",
            "epoch_date_close_approach": 1413418920000,
            "relative_velocity": {
                "kilometers_per_second": "10.1279406174",
                "kilometers_per_hour": "36460.5862224762",
                "miles_per_hour": "22655.1903669603"
            },
            "miss_distance": {
                "astronomical": "0.0788214218",
                "lunar": "30.6615330802",
                "kilometers": "11791516.811651566",
                "miles": "7326908.7934849708"
            },
            "orbiting_body": "Earth"
        }
    ],
    "orbital_data": {
        "orbit_id": "10",
        "orbit_determination_date": "2017-04-06 08:37:54",
        "first_observation_date": "2014-10-25",
        "last_observation_date": "2014-11-16",
        "data_arc_in_days": 22,
        "observations_used": 34,
        "orbit_uncertainty": "8",
        "minimum_orbit_intersection": ".0760922",
        "jupiter_tisserand_invariant": "3.825",
        "epoch_osculation": "2456957.5",
        "eccentricity": ".45899697081614",
        "semi_major_axis": "1.865040269353046",
        "inclination": "13.34698672588215",
        "ascending_node_longitude": "35.76778004820593",
        "orbital_period": "930.3165499792923",
        "perihelion_distance": "1.00899243526988",
        "perihelion_argument": "317.5830671864599",
        "aphelion_distance": "2.721088103436212",
        "perihelion_time": "2456920.357266694884",
        "mean_anomaly": "14.37294003867758",
        "mean_motion": ".3869650604495998",
        "equinox": "J2000",
        "orbit_class": {
            "orbit_class_type": "APO",
            "orbit_class_description": "Near-Earth asteroid orbits which cross the Earth’s orbit similar to that of 1862 Apollo",
            "orbit_class_range": "a (semi-major axis) > 1.0 AU; q (perihelion) < 1.017 AU"
        }
    },
    "is_sentry_object": false
}